{
  "type": "FeatureCollection",
  "features": [
    {
      "type": "Feature",
      "properties": {
        "norad_id": 36744,
        "name": "COMS 1",
        "group": "weather",
        "lat": -3.6069318554389453,
        "lon": -46.04446556008796,
        "alt_km": 35782.624882871,
        "timestamp": "2025-12-11T07:02:23.376167+00:00",
        "meta_object_name": "COMS 1",
        "meta_object_id": "2010-032A",
        "meta_epoch": "2025-12-10T15:51:52.946208",
        "meta_mean_motion": 1.0027063,
        "meta_eccentricity": 0.00011371,
        "meta_inclination": 4.3367,
        "meta_ra_of_asc_node": 78.0199,
        "meta_arg_of_pericenter": 211.0495,
        "meta_mean_anomaly": 156.7077,
        "meta_ephemeris_type": 0,
        "meta_classification_type": "U",
        "meta_norad_cat_id": 36744,
        "meta_element_set_no": 999,
        "meta_rev_at_epoch": 4920,
        "meta_bstar": 0,
        "meta_mean_motion_dot": -3.4e-06,
        "meta_mean_motion_ddot": 0,
        "tle_line1": "1 36744U 10032A   25344.66102947 -.00000340  00000+0  00000+0 0  9999",
        "tle_line2": "2 36744   4.3367  78.0199 0001137 211.0495 156.7077  1.00270630 49204"
      },
      "geometry": {
        "type": "Point",
        "coordinates": [
          -46.04446556008796,
          -3.6069318554389453
        ]
      }
    },
    {
      "type": "Feature",
      "properties": {
        "norad_id": 37214,
        "name": "FENGYUN 3B",
        "group": "weather",
        "lat": -50.93015386195687,
        "lon": -165.985761185338,
        "alt_km": 860.1762090487591,
        "timestamp": "2025-12-11T07:02:23.376180+00:00",
        "meta_object_name": "FENGYUN 3B",
        "meta_object_id": "2010-059A",
        "meta_epoch": "2025-12-10T23:22:44.192640",
        "meta_mean_motion": 14.14788385,
        "meta_eccentricity": 0.00221268,
        "meta_inclination": 98.9905,
        "meta_ra_of_asc_node": 24.9385,
        "meta_arg_of_pericenter": 2.7337,
        "meta_mean_anomaly": 44.3243,
        "meta_ephemeris_type": 0,
        "meta_classification_type": "U",
        "meta_norad_cat_id": 37214,
        "meta_element_set_no": 999,
        "meta_rev_at_epoch": 78081,
        "meta_bstar": 8.0619265e-05,
        "meta_mean_motion_dot": 1.1e-06,
        "meta_mean_motion_ddot": 0,
        "tle_line1": "1 37214U 10059A   25344.97412260  .00000110  00000+0  80619-4 0  9990",
        "tle_line2": "2 37214  98.9905  24.9385 0022126   2.7337  44.3243 14.14788385780818"
      },
      "geometry": {
        "type": "Point",
        "coordinates": [
          -165.985761185338,
          -50.93015386195687
        ]
      }
    },
    {
      "type": "Feature",
      "properties": {
        "norad_id": 37849,
        "name": "SUOMI NPP",
        "group": "weather",
        "lat": 47.349782194775,
        "lon": -87.00742595777032,
        "alt_km": 822.3286179327915,
        "timestamp": "2025-12-11T07:02:23.376191+00:00",
        "meta_object_name": "SUOMI NPP",
        "meta_object_id": "2011-061A",
        "meta_epoch": "2025-12-10T22:21:20.428416",
        "meta_mean_motion": 14.19513325,
        "meta_eccentricity": 0.00021877,
        "meta_inclination": 98.7771,
        "meta_ra_of_asc_node": 282.2893,
        "meta_arg_of_pericenter": 123.4307,
        "meta_mean_anomaly": 236.7078,
        "meta_ephemeris_type": 0,
        "meta_classification_type": "U",
        "meta_norad_cat_id": 37849,
        "meta_element_set_no": 999,
        "meta_rev_at_epoch": 73173,
        "meta_bstar": 0.00010544745,
        "meta_mean_motion_dot": 1.78e-06,
        "meta_mean_motion_ddot": 0,
        "tle_line1": "1 37849U 11061A   25344.93148644  .00000178  00000+0  10545-3 0  9990",
        "tle_line2": "2 37849  98.7771 282.2893 0002187 123.4307 236.7078 14.19513325731732"
      },
      "geometry": {
        "type": "Point",
        "coordinates": [
          -87.00742595777032,
          47.349782194775
        ]
      }
    },
    {
      "type": "Feature",
      "properties": {
        "norad_id": 38552,
        "name": "METEOSAT-10 (MSG-3)",
        "group": "weather",
        "lat": 3.485246521070939,
        "lon": -173.91825921268443,
        "alt_km": 35786.68407920422,
        "timestamp": "2025-12-11T07:02:23.376204+00:00",
        "meta_object_name": "METEOSAT-10 (MSG-3)",
        "meta_object_id": "2012-035B",
        "meta_epoch": "2025-12-10T20:23:29.214816",
        "meta_mean_motion": 1.00274412,
        "meta_eccentricity": 8.284e-05,
        "meta_inclination": 4.2248,
        "meta_ra_of_asc_node": 61.7284,
        "meta_arg_of_pericenter": 245.7095,
        "meta_mean_anomaly": 78.4106,
        "meta_ephemeris_type": 0,
        "meta_classification_type": "U",
        "meta_norad_cat_id": 38552,
        "meta_element_set_no": 999,
        "meta_rev_at_epoch": 4896,
        "meta_bstar": 0,
        "meta_mean_motion_dot": -1e-08,
        "meta_mean_motion_ddot": 0,
        "tle_line1": "1 38552U 12035B   25344.84964369 -.00000001  00000+0  00000+0 0  9991",
        "tle_line2": "2 38552   4.2248  61.7284 0000828 245.7095  78.4106  1.00274412 48967"
      },
      "geometry": {
        "type": "Point",
        "coordinates": [
          -173.91825921268443,
          3.485246521070939
        ]
      }
    },
    {
      "type": "Feature",
      "properties": {
        "norad_id": 38771,
        "name": "METOP-B",
        "group": "weather",
        "lat": -68.866344069592,
        "lon": -168.00249455493167,
        "alt_km": 828.3213417356965,
        "timestamp": "2025-12-11T07:02:23.376216+00:00",
        "meta_object_name": "METOP-B",
        "meta_object_id": "2012-049A",
        "meta_epoch": "2025-12-10T21:25:02.642016",
        "meta_mean_motion": 14.21407222,
        "meta_eccentricity": 0.0002832,
        "meta_inclination": 98.6802,
        "meta_ra_of_asc_node": 34.8824,
        "meta_arg_of_pericenter": 148.0562,
        "meta_mean_anomaly": 212.0788,
        "meta_ephemeris_type": 0,
        "meta_classification_type": "U",
        "meta_norad_cat_id": 38771,
        "meta_element_set_no": 999,
        "meta_rev_at_epoch": 68651,
        "meta_bstar": 0.00011265428,
        "meta_mean_motion_dot": 2.03e-06,
        "meta_mean_motion_ddot": 0,
        "tle_line1": "1 38771U 12049A   25344.89239169  .00000203  00000+0  11265-3 0  9999",
        "tle_line2": "2 38771  98.6802  34.8824 0002832 148.0562 212.0788 14.21407222686510"
      },
      "geometry": {
        "type": "Point",
        "coordinates": [
          -168.00249455493167,
          -68.866344069592
        ]
      }
    },
    {
      "type": "Feature",
      "properties": {
        "norad_id": 39216,
        "name": "INSAT-3D",
        "group": "weather",
        "lat": -1.1190571748722202,
        "lon": -44.59851990608198,
        "alt_km": 35783.96936930412,
        "timestamp": "2025-12-11T07:02:23.376228+00:00",
        "meta_object_name": "INSAT-3D",
        "meta_object_id": "2013-038B",
        "meta_epoch": "2025-12-10T21:00:25.677216",
        "meta_mean_motion": 1.00270729,
        "meta_eccentricity": 0.00015668,
        "meta_inclination": 1.4404,
        "meta_ra_of_asc_node": 85.0095,
        "meta_arg_of_pericenter": 163.5597,
        "meta_mean_anomaly": 275.9256,
        "meta_ephemeris_type": 0,
        "meta_classification_type": "U",
        "meta_norad_cat_id": 39216,
        "meta_element_set_no": 999,
        "meta_rev_at_epoch": 4519,
        "meta_bstar": 0,
        "meta_mean_motion_dot": -3.34e-06,
        "meta_mean_motion_ddot": 0,
        "tle_line1": "1 39216U 13038B   25344.87529719 -.00000334  00000+0  00000+0 0  9991",
        "tle_line2": "2 39216   1.4404  85.0095 0001566 163.5597 275.9256  1.00270729 45190"
      },
      "geometry": {
        "type": "Point",
        "coordinates": [
          -44.59851990608198,
          -1.1190571748722202
        ]
      }
    },
    {
      "type": "Feature",
      "properties": {
        "norad_id": 39260,
        "name": "FENGYUN 3C",
        "group": "weather",
        "lat": 12.51666997041206,
        "lon": 144.94041661383298,
        "alt_km": 832.520241364301,
        "timestamp": "2025-12-11T07:02:23.376255+00:00",
        "meta_object_name": "FENGYUN 3C",
        "meta_object_id": "2013-052A",
        "meta_epoch": "2025-12-10T21:46:13.942848",
        "meta_mean_motion": 14.15695396,
        "meta_eccentricity": 0.00141821,
        "meta_inclination": 98.4761,
        "meta_ra_of_asc_node": 322.676,
        "meta_arg_of_pericenter": 201.4761,
        "meta_mean_anomaly": 158.5821,
        "meta_ephemeris_type": 0,
        "meta_classification_type": "U",
        "meta_norad_cat_id": 39260,
        "meta_element_set_no": 999,
        "meta_rev_at_epoch": 63192,
        "meta_bstar": 0.00012127617,
        "meta_mean_motion_dot": 1.97e-06,
        "meta_mean_motion_ddot": 0,
        "tle_line1": "1 39260U 13052A   25344.90710582  .00000197  00000+0  12128-3 0  9994",
        "tle_line2": "2 39260  98.4761 322.6760 0014182 201.4761 158.5821 14.15695396631920"
      },
      "geometry": {
        "type": "Point",
        "coordinates": [
          144.94041661383298,
          12.51666997041206
        ]
      }
    }
  ]
}